{
  "type": "FeatureCollection",
  "features": [
    {
      "type": "Feature",
      "properties": {
        "norad_id": 27954,
        "name": "GALAXY 13 (HORIZONS-1)",
        "group": "intelsat",
        "lat": -0.10455700504126426,
        "lon": -88.15396875656724,
        "alt_km": 35778.12968752875,
        "timestamp": "2025-12-11T22:43:46.939397+00:00",
        "meta_object_name": "GALAXY 13 (HORIZONS-1)",
        "meta_object_id": "2003-044A",
        "meta_epoch": "2025-12-11T12:47:49.167744",
        "meta_mean_motion": 1.00271003,
        "meta_eccentricity": 0.00020379,
        "meta_inclination": 0.9324,
        "meta_ra_of_asc_node": 86.4856,
        "meta_arg_of_pericenter": 165.9898,
        "meta_mean_anomaly": 229.9694,
        "meta_ephemeris_type": 0,
        "meta_classification_type": "U",
        "meta_norad_cat_id": 27954,
        "meta_element_set_no": 999,
        "meta_rev_at_epoch": 4469,
        "meta_bstar": 0,
        "meta_mean_motion_dot": 1.4e-06,
        "meta_mean_motion_ddot": 0,
        "tle_line1": "1 27954U 03044A   25345.53320796  .00000140  00000+0  00000+0 0  9995",
        "tle_line2": "2 27954   0.9324  86.4856 0002037 165.9898 229.9694  1.00271003 44690"
      },
      "geometry": {
        "type": "Point",
        "coordinates": [
          -88.15396875656724,
          -0.10455700504126426
        ]
      }
    },
    {
      "type": "Feature",
      "properties": {
        "norad_id": 28358,
        "name": "INTELSAT 10-02",
        "group": "intelsat",
        "lat": 0.012676232227912249,
        "lon": 60.88732883100006,
        "alt_km": 35789.118163655236,
        "timestamp": "2025-12-11T22:43:46.939410+00:00",
        "meta_object_name": "INTELSAT 10-02",
        "meta_object_id": "2004-022A",
        "meta_epoch": "2025-12-11T13:30:15.105312",
        "meta_mean_motion": 1.00271737,
        "meta_eccentricity": 0.00011498,
        "meta_inclination": 0.0251,
        "meta_ra_of_asc_node": 67.6375,
        "meta_arg_of_pericenter": 224.6769,
        "meta_mean_anomaly": 349.8059,
        "meta_ephemeris_type": 0,
        "meta_classification_type": "U",
        "meta_norad_cat_id": 28358,
        "meta_element_set_no": 999,
        "meta_rev_at_epoch": 7867,
        "meta_bstar": 0,
        "meta_mean_motion_dot": -3e-08,
        "meta_mean_motion_ddot": 0,
        "tle_line1": "1 28358U 04022A   25345.56267483 -.00000003  00000+0  00000+0 0  9996",
        "tle_line2": "2 28358   0.0251  67.6375 0001149 224.6769 349.8059  1.00271737 78675"
      },
      "geometry": {
        "type": "Point",
        "coordinates": [
          60.88732883100006,
          0.012676232227912249
        ]
      }
    },
    {
      "type": "Feature",
      "properties": {
        "norad_id": 28626,
        "name": "XM-3 (RHYTHM)",
        "group": "intelsat",
        "lat": 0.16241863503010012,
        "lon": 179.92743208404815,
        "alt_km": 36166.16293958846,
        "timestamp": "2025-12-11T22:43:46.939422+00:00",
        "meta_object_name": "XM-3 (RHYTHM)",
        "meta_object_id": "2005-008A",
        "meta_epoch": "2025-12-11T14:04:49.293696",
        "meta_mean_motion": 0.98952926,
        "meta_eccentricity": 0.00014883,
        "meta_inclination": 0.1719,
        "meta_ra_of_asc_node": 81.409,
        "meta_arg_of_pericenter": 268.8794,
        "meta_mean_anomaly": 61.2624,
        "meta_ephemeris_type": 0,
        "meta_classification_type": "U",
        "meta_norad_cat_id": 28626,
        "meta_element_set_no": 999,
        "meta_rev_at_epoch": 4073,
        "meta_bstar": 0,
        "meta_mean_motion_dot": -1.86e-06,
        "meta_mean_motion_ddot": 0,
        "tle_line1": "1 28626U 05008A   25345.58668164 -.00000186  00000+0  00000+0 0  9994",
        "tle_line2": "2 28626   0.1719  81.4090 0001488 268.8794  61.2624  0.98952926 40736"
      },
      "geometry": {
        "type": "Point",
        "coordinates": [
          179.92743208404815,
          0.16241863503010012
        ]
      }
    },
    {
      "type": "Feature",
      "properties": {
        "norad_id": 28659,
        "name": "DIRECTV 8",
        "group": "intelsat",
        "lat": -0.019581993976839792,
        "lon": -57.179599091984315,
        "alt_km": 35775.98385307827,
        "timestamp": "2025-12-11T22:43:46.939435+00:00",
        "meta_object_name": "DIRECTV 8",
        "meta_object_id": "2005-019A",
        "meta_epoch": "2025-12-11T14:39:23.483808",
        "meta_mean_motion": 1.00271584,
        "meta_eccentricity": 0.00030607,
        "meta_inclination": 0.0149,
        "meta_ra_of_asc_node": 51.2096,
        "meta_arg_of_pericenter": 213.1918,
        "meta_mean_anomaly": 276.9728,
        "meta_ephemeris_type": 0,
        "meta_classification_type": "U",
        "meta_norad_cat_id": 28659,
        "meta_element_set_no": 999,
        "meta_rev_at_epoch": 7519,
        "meta_bstar": 0,
        "meta_mean_motion_dot": 9e-08,
        "meta_mean_motion_ddot": 0,
        "tle_line1": "1 28659U 05019A   25345.61068847  .00000009  00000+0  00000+0 0  9991",
        "tle_line2": "2 28659   0.0149  51.2096 0003060 213.1918 276.9728  1.00271584 75194"
      },
      "geometry": {
        "type": "Point",
        "coordinates": [
          -57.179599091984315,
          -0.019581993976839792
        ]
      }
    },
    {
      "type": "Feature",
      "properties": {
        "norad_id": 28702,
        "name": "GALAXY 28 (G-28)",
        "group": "intelsat",
        "lat": -2.68023653222062,
        "lon": -26.836049652309903,
        "alt_km": 35782.60383385427,
        "timestamp": "2025-12-11T22:43:46.939447+00:00",
        "meta_object_name": "GALAXY 28 (G-28)",
        "meta_object_id": "2005-022A",
        "meta_epoch": "2025-12-11T13:05:24.982656",
        "meta_mean_motion": 1.00270698,
        "meta_eccentricity": 0.00027272,
        "meta_inclination": 2.8156,
        "meta_ra_of_asc_node": 81.2954,
        "meta_arg_of_pericenter": 183.0349,
        "meta_mean_anomaly": 283.8399,
        "meta_ephemeris_type": 0,
        "meta_classification_type": "U",
        "meta_norad_cat_id": 28702,
        "meta_element_set_no": 999,
        "meta_rev_at_epoch": 5009,
        "meta_bstar": 0,
        "meta_mean_motion_dot": -1.8e-06,
        "meta_mean_motion_ddot": 0,
        "tle_line1": "1 28702U 05022A   25345.54542804 -.00000180  00000+0  00000+0 0  9997",
        "tle_line2": "2 28702   2.8156  81.2954 0002727 183.0349 283.8399  1.00270698 50097"
      },
      "geometry": {
        "type": "Point",
        "coordinates": [
          -26.836049652309903,
          -2.68023653222062
        ]
      }
    },
    {
      "type": "Feature",
      "properties": {
        "norad_id": 29236,
        "name": "GALAXY 16 (G-16)",
        "group": "intelsat",
        "lat": -0.015973152748079797,
        "lon": -37.136968940350485,
        "alt_km": 35781.151845114655,
        "timestamp": "2025-12-11T22:43:46.939459+00:00",
        "meta_object_name": "GALAXY 16 (G-16)",
        "meta_object_id": "2006-023A",
        "meta_epoch": "2025-12-11T13:02:25.269792",
        "meta_mean_motion": 1.00272333,
        "meta_eccentricity": 0.000268,
        "meta_inclination": 0.0464,
        "meta_ra_of_asc_node": 137.3399,
        "meta_arg_of_pericenter": 120.4767,
        "meta_mean_anomaly": 279.2842,
        "meta_ephemeris_type": 0,
        "meta_classification_type": "U",
        "meta_norad_cat_id": 29236,
        "meta_element_set_no": 999,
        "meta_rev_at_epoch": 7109,
        "meta_bstar": 0,
        "meta_mean_motion_dot": -1.2e-06,
        "meta_mean_motion_ddot": 0,
        "tle_line1": "1 29236U 06023A   25345.54334803 -.00000120  00000+0  00000+0 0  9994",
        "tle_line2": "2 29236   0.0464 137.3399 0002680 120.4767 279.2842  1.00272333 71098"
      },
      "geometry": {
        "type": "Point",
        "coordinates": [
          -37.136968940350485,
          -0.015973152748079797
        ]
      }
    },
    {
      "type": "Feature",
      "properties": {
        "norad_id": 29494,
        "name": "DIRECTV 9S",
        "group": "intelsat",
        "lat": -1.6402206224757558,
        "lon": -39.353288273685045,
        "alt_km": 35779.32834029209,
        "timestamp": "2025-12-11T22:43:46.939471+00:00",
        "meta_object_name": "DIRECTV 9S",
        "meta_object_id": "2006-043A",
        "meta_epoch": "2025-12-11T13:01:47.830080",
        "meta_mean_motion": 1.00271791,
        "meta_eccentricity": 0.00030597,
        "meta_inclination": 1.9374,
        "meta_ra_of_asc_node": 83.2222,
        "meta_arg_of_pericenter": 180.0527,
        "meta_mean_anomaly": 271.4643,
        "meta_ephemeris_type": 0,
        "meta_classification_type": "U",
        "meta_norad_cat_id": 29494,
        "meta_element_set_no": 999,
        "meta_rev_at_epoch": 4950,
        "meta_bstar": 0,
        "meta_mean_motion_dot": -1.06e-06,
        "meta_mean_motion_ddot": 0,
        "tle_line1": "1 29494U 06043A   25345.54291470 -.00000106  00000+0  00000+0 0  9998",
        "tle_line2": "2 29494   1.9374  83.2222 0003059 180.0527 271.4643  1.00271791 49506"
      },
      "geometry": {
        "type": "Point",
        "coordinates": [
          -39.353288273685045,
          -1.6402206224757558
        ]
      }
    }
  ]
}